<?xml version="1.0" encoding="UTF-8"?>
<ndm xmlns:xsi="http://www.w3.org/2001/XMLSchema-instance" xsi:noNamespaceSchemaLocation="https://sanaregistry.org/r/ndmxml_unqualified/ndmxml-2.0.0-master-2.0.xsd">
<omm id="CCSDS_OMM_VERS" version="2.0">
<header><CREATION_DATE/><ORIGINATOR/></header><body><segment><metadata><OBJECT_NAME>KUIPER-00053</OBJECT_NAME><OBJECT_ID>2025-134P</OBJECT_ID><CENTER_NAME>EARTH</CENTER_NAME><REF_FRAME>TEME</REF_FRAME><TIME_SYSTEM>UTC</TIME_SYSTEM><MEAN_ELEMENT_THEORY>SGP4</MEAN_ELEMENT_THEORY></metadata><data><meanElements><EPOCH>2025-08-11T21:17:51.686592</EPOCH><MEAN_MOTION>15.36970548</MEAN_MOTION><ECCENTRICITY>.0002087</ECCENTRICITY><INCLINATION>51.8775</INCLINATION><RA_OF_ASC_NODE>92.2983</RA_OF_ASC_NODE><ARG_OF_PERICENTER>264.3995</ARG_OF_PERICENTER><MEAN_ANOMALY>95.6754</MEAN_ANOMALY></meanElements><tleParameters><EPHEMERIS_TYPE>0</EPHEMERIS_TYPE><CLASSIFICATION_TYPE>U</CLASSIFICATION_TYPE><NORAD_CAT_ID>64513</NORAD_CAT_ID><ELEMENT_SET_NO>999</ELEMENT_SET_NO><REV_AT_EPOCH>884</REV_AT_EPOCH><BSTAR>.11703E-2</BSTAR><MEAN_MOTION_DOT>.42834E-3</MEAN_MOTION_DOT><MEAN_MOTION_DDOT>0</MEAN_MOTION_DDOT></tleParameters></data></segment></body></omm>
<omm id="CCSDS_OMM_VERS" version="2.0">
<header><CREATION_DATE/><ORIGINATOR/></header><body><segment><metadata><OBJECT_NAME>KUIPER-00054</OBJECT_NAME><OBJECT_ID>2025-134Q</OBJECT_ID><CENTER_NAME>EARTH</CENTER_NAME><REF_FRAME>TEME</REF_FRAME><TIME_SYSTEM>UTC</TIME_SYSTEM><MEAN_ELEMENT_THEORY>SGP4</MEAN_ELEMENT_THEORY></metadata><data><meanElements><EPOCH>2025-08-11T21:27:25.567488</EPOCH><MEAN_MOTION>15.36736379</MEAN_MOTION><ECCENTRICITY>.0003059</ECCENTRICITY><INCLINATION>51.8762</INCLINATION><RA_OF_ASC_NODE>92.3399</RA_OF_ASC_NODE><ARG_OF_PERICENTER>273.2582</ARG_OF_PERICENTER><MEAN_ANOMALY>86.8055</MEAN_ANOMALY></meanElements><tleParameters><EPHEMERIS_TYPE>0</EPHEMERIS_TYPE><CLASSIFICATION_TYPE>U</CLASSIFICATION_TYPE><NORAD_CAT_ID>64514</NORAD_CAT_ID><ELEMENT_SET_NO>999</ELEMENT_SET_NO><REV_AT_EPOCH>884</REV_AT_EPOCH><BSTAR>.88398E-3</BSTAR><MEAN_MOTION_DOT>.3197E-3</MEAN_MOTION_DOT><MEAN_MOTION_DDOT>0</MEAN_MOTION_DDOT></tleParameters></data></segment></body></omm>
<omm id="CCSDS_OMM_VERS" version="2.0">
<header><CREATION_DATE/><ORIGINATOR/></header><body><segment><metadata><OBJECT_NAME>KUIPER-00055</OBJECT_NAME><OBJECT_ID>2025-134R</OBJECT_ID><CENTER_NAME>EARTH</CENTER_NAME><REF_FRAME>TEME</REF_FRAME><TIME_SYSTEM>UTC</TIME_SYSTEM><MEAN_ELEMENT_THEORY>SGP4</MEAN_ELEMENT_THEORY></metadata><data><meanElements><EPOCH>2025-08-11T22:30:58.028832</EPOCH><MEAN_MOTION>15.37374276</MEAN_MOTION><ECCENTRICITY>.0000748</ECCENTRICITY><INCLINATION>51.8769</INCLINATION><RA_OF_ASC_NODE>91.8929</RA_OF_ASC_NODE><ARG_OF_PERICENTER>207.1968</ARG_OF_PERICENTER><MEAN_ANOMALY>152.8979</MEAN_ANOMALY></meanElements><tleParameters><EPHEMERIS_TYPE>0</EPHEMERIS_TYPE><CLASSIFICATION_TYPE>U</CLASSIFICATION_TYPE><NORAD_CAT_ID>64515</NORAD_CAT_ID><ELEMENT_SET_NO>999</ELEMENT_SET_NO><REV_AT_EPOCH>885</REV_AT_EPOCH><BSTAR>.78628E-3</BSTAR><MEAN_MOTION_DOT>.28977E-3</MEAN_MOTION_DOT><MEAN_MOTION_DDOT>0</MEAN_MOTION_DDOT></tleParameters></data></segment></body></omm>
<omm id="CCSDS_OMM_VERS" version="2.0">
<header><CREATION_DATE/><ORIGINATOR/></header><body><segment><metadata><OBJECT_NAME>KUIPER-00056</OBJECT_NAME><OBJECT_ID>2025-134S</OBJECT_ID><CENTER_NAME>EARTH</CENTER_NAME><REF_FRAME>TEME</REF_FRAME><TIME_SYSTEM>UTC</TIME_SYSTEM><MEAN_ELEMENT_THEORY>SGP4</MEAN_ELEMENT_THEORY></metadata><data><meanElements><EPOCH>2025-08-11T21:37:58.712736</EPOCH><MEAN_MOTION>15.36503155</MEAN_MOTION><ECCENTRICITY>.0003201</ECCENTRICITY><INCLINATION>51.8748</INCLINATION><RA_OF_ASC_NODE>92.3824</RA_OF_ASC_NODE><ARG_OF_PERICENTER>279.3839</ARG_OF_PERICENTER><MEAN_ANOMALY>80.6786</MEAN_ANOMALY></meanElements><tleParameters><EPHEMERIS_TYPE>0</EPHEMERIS_TYPE><CLASSIFICATION_TYPE>U</CLASSIFICATION_TYPE><NORAD_CAT_ID>64516</NORAD_CAT_ID><ELEMENT_SET_NO>999</ELEMENT_SET_NO><REV_AT_EPOCH>884</REV_AT_EPOCH><BSTAR>.11266E-2</BSTAR><MEAN_MOTION_DOT>.4059E-3</MEAN_MOTION_DOT><MEAN_MOTION_DDOT>0</MEAN_MOTION_DDOT></tleParameters></data></segment></body></omm>
<omm id="CCSDS_OMM_VERS" version="2.0">
<header><CREATION_DATE/><ORIGINATOR/></header><body><segment><metadata><OBJECT_NAME>KUIPER-00057</OBJECT_NAME><OBJECT_ID>2025-134T</OBJECT_ID><CENTER_NAME>EARTH</CENTER_NAME><REF_FRAME>TEME</REF_FRAME><TIME_SYSTEM>UTC</TIME_SYSTEM><MEAN_ELEMENT_THEORY>SGP4</MEAN_ELEMENT_THEORY></metadata><data><meanElements><EPOCH>2025-08-11T22:22:55.669728</EPOCH><MEAN_MOTION>15.34737985</MEAN_MOTION><ECCENTRICITY>.0006557</ECCENTRICITY><INCLINATION>51.8704</INCLINATION><RA_OF_ASC_NODE>92.5662</RA_OF_ASC_NODE><ARG_OF_PERICENTER>287.3026</ARG_OF_PERICENTER><MEAN_ANOMALY>72.7242</MEAN_ANOMALY></meanElements><tleParameters><EPHEMERIS_TYPE>0</EPHEMERIS_TYPE><CLASSIFICATION_TYPE>U</CLASSIFICATION_TYPE><NORAD_CAT_ID>64517</NORAD_CAT_ID><ELEMENT_SET_NO>999</ELEMENT_SET_NO><REV_AT_EPOCH>884</REV_AT_EPOCH><BSTAR>.14097E-2</BSTAR><MEAN_MOTION_DOT>.48147E-3</MEAN_MOTION_DOT><MEAN_MOTION_DDOT>0</MEAN_MOTION_DDOT></tleParameters></data></segment></body></omm>
<omm id="CCSDS_OMM_VERS" version="2.0">
<header><CREATION_DATE/><ORIGINATOR/></header><body><segment><metadata><OBJECT_NAME>KUIPER-00058</OBJECT_NAME><OBJECT_ID>2025-134U</OBJECT_ID><CENTER_NAME>EARTH</CENTER_NAME><REF_FRAME>TEME</REF_FRAME><TIME_SYSTEM>UTC</TIME_SYSTEM><MEAN_ELEMENT_THEORY>SGP4</MEAN_ELEMENT_THEORY></metadata><data><meanElements><EPOCH>2025-08-11T21:53:09.892320</EPOCH><MEAN_MOTION>15.36229029</MEAN_MOTION><ECCENTRICITY>.0004659</ECCENTRICITY><INCLINATION>51.8720</INCLINATION><RA_OF_ASC_NODE>92.4437</RA_OF_ASC_NODE><ARG_OF_PERICENTER>284.9764</ARG_OF_PERICENTER><MEAN_ANOMALY>75.0706</MEAN_ANOMALY></meanElements><tleParameters><EPHEMERIS_TYPE>0</EPHEMERIS_TYPE><CLASSIFICATION_TYPE>U</CLASSIFICATION_TYPE><NORAD_CAT_ID>64518</NORAD_CAT_ID><ELEMENT_SET_NO>999</ELEMENT_SET_NO><REV_AT_EPOCH>884</REV_AT_EPOCH><BSTAR>.90857E-3</BSTAR><MEAN_MOTION_DOT>.3234E-3</MEAN_MOTION_DOT><MEAN_MOTION_DDOT>0</MEAN_MOTION_DDOT></tleParameters></data></segment></body></omm>
<omm id="CCSDS_OMM_VERS" version="2.0">
<header><CREATION_DATE/><ORIGINATOR/></header><body><segment><metadata><OBJECT_NAME>KUIPER-00059</OBJECT_NAME><OBJECT_ID>2025-134V</OBJECT_ID><CENTER_NAME>EARTH</CENTER_NAME><REF_FRAME>TEME</REF_FRAME><TIME_SYSTEM>UTC</TIME_SYSTEM><MEAN_ELEMENT_THEORY>SGP4</MEAN_ELEMENT_THEORY></metadata><data><meanElements><EPOCH>2025-08-11T22:34:50.132928</EPOCH><MEAN_MOTION>15.37306385</MEAN_MOTION><ECCENTRICITY>.0001568</ECCENTRICITY><INCLINATION>51.8769</INCLINATION><RA_OF_ASC_NODE>91.9073</RA_OF_ASC_NODE><ARG_OF_PERICENTER>225.5638</ARG_OF_PERICENTER><MEAN_ANOMALY>134.5221</MEAN_ANOMALY></meanElements><tleParameters><EPHEMERIS_TYPE>0</EPHEMERIS_TYPE><CLASSIFICATION_TYPE>U</CLASSIFICATION_TYPE><NORAD_CAT_ID>64519</NORAD_CAT_ID><ELEMENT_SET_NO>999</ELEMENT_SET_NO><REV_AT_EPOCH>885</REV_AT_EPOCH><BSTAR>.49545E-3</BSTAR><MEAN_MOTION_DOT>.18047E-3</MEAN_MOTION_DOT><MEAN_MOTION_DDOT>0</MEAN_MOTION_DDOT></tleParameters></data></segment></body></omm>
<omm id="CCSDS_OMM_VERS" version="2.0">
<header><CREATION_DATE/><ORIGINATOR/></header><body><segment><metadata><OBJECT_NAME>KUIPER-00060</OBJECT_NAME><OBJECT_ID>2025-134W</OBJECT_ID><CENTER_NAME>EARTH</CENTER_NAME><REF_FRAME>TEME</REF_FRAME><TIME_SYSTEM>UTC</TIME_SYSTEM><MEAN_ELEMENT_THEORY>SGP4</MEAN_ELEMENT_THEORY></metadata><data><meanElements><EPOCH>2025-08-11T22:44:18.840192</EPOCH><MEAN_MOTION>15.37151311</MEAN_MOTION><ECCENTRICITY>.0002008</ECCENTRICITY><INCLINATION>51.8772</INCLINATION><RA_OF_ASC_NODE>91.9529</RA_OF_ASC_NODE><ARG_OF_PERICENTER>231.1736</ARG_OF_PERICENTER><MEAN_ANOMALY>128.9071</MEAN_ANOMALY></meanElements><tleParameters><EPHEMERIS_TYPE>0</EPHEMERIS_TYPE><CLASSIFICATION_TYPE>U</CLASSIFICATION_TYPE><NORAD_CAT_ID>64520</NORAD_CAT_ID><ELEMENT_SET_NO>999</ELEMENT_SET_NO><REV_AT_EPOCH>884</REV_AT_EPOCH><BSTAR>.46721E-3</BSTAR><MEAN_MOTION_DOT>.16907E-3</MEAN_MOTION_DOT><MEAN_MOTION_DDOT>0</MEAN_MOTION_DDOT></tleParameters></data></segment></body></omm>

</ndm>
