KUIPER-00053            
1 64513U 25134P   25223.88740378  .00042834  00000+0  11703-2 0  9997
2 64513  51.8775  92.2983 0002087 264.3995  95.6754 15.36970548  8846
KUIPER-00054            
1 64514U 25134Q   25223.89404592  .00031970  00000+0  88398-3 0  9998
2 64514  51.8762  92.3399 0003059 273.2582  86.8055 15.36736379  8844
KUIPER-00055            
1 64515U 25134R   25223.93817163  .00028977  00000+0  78628-3 0  9994
2 64515  51.8769  91.8929 0000748 207.1968 152.8979 15.37374276  8856
KUIPER-00056            
1 64516U 25134S   25223.90137399  .00040590  00000+0  11266-2 0  9997
2 64516  51.8748  92.3824 0003201 279.3839  80.6786 15.36503155  8841
KUIPER-00057            
1 64517U 25134T   25223.93258877  .00048147  00000+0  14097-2 0  9997
2 64517  51.8704  92.5662 0006557 287.3026  72.7242 15.34737985  8847
KUIPER-00058            
1 64518U 25134U   25223.91192005  .00032340  00000+0  90857-3 0  9993
2 64518  51.8720  92.4437 0004659 284.9764  75.0706 15.36229029  8846
KUIPER-00059            
1 64519U 25134V   25223.94085802  .00018047  00000+0  49545-3 0  9999
2 64519  51.8769  91.9073 0001568 225.5638 134.5221 15.37306385  8853
KUIPER-00060            
1 64520U 25134W   25223.94744028  .00016907  00000+0  46721-3 0  9999
2 64520  51.8772  91.9529 0002008 231.1736 128.9071 15.37151311  8843
